[{"OBJECT_NAME":"OBJECT F","OBJECT_ID":"2023-072F","EPOCH":"2026-03-09T23:31:37.259904","MEAN_MOTION":15.29470958,"ECCENTRICITY":0.00062878,"INCLINATION":97.5173,"RA_OF_ASC_NODE":265.798,"ARG_OF_PERICENTER":19.0017,"MEAN_ANOMALY":341.1456,"EPHEMERIS_TYPE":0,"CLASSIFICATION_TYPE":"U","NORAD_CAT_ID":56748,"ELEMENT_SET_NO":999,"REV_AT_EPOCH":15460,"BSTAR":0.00043416252,"MEAN_MOTION_DOT":0.00012341,"MEAN_MOTION_DDOT":0},{"OBJECT_NAME":"STARLINK-31450","OBJECT_ID":"2024-036J","EPOCH":"2026-03-09T06:54:26.460000","MEAN_MOTION":15.30189795,"ECCENTRICITY":0.00013241,"INCLINATION":53.1606,"RA_OF_ASC_NODE":79.8551,"ARG_OF_PERICENTER":88.416,"MEAN_ANOMALY":271.6992,"EPHEMERIS_TYPE":0,"CLASSIFICATION_TYPE":"U","NORAD_CAT_ID":59006,"ELEMENT_SET_NO":999,"REV_AT_EPOCH":11526,"BSTAR":1.7071386e-5,"MEAN_MOTION_DOT":1.46e-6,"MEAN_MOTION_DDOT":0}]
